NORAD_CAT_ID,OBJECT_NAME,OBJECT_TYPE,EPOCH,MEAN_MOTION,ECCENTRICITY,INCLINATION,RA_OF_ASC_NODE,ARG_OF_PERICENTER,MEAN_ANOMALY,BSTAR,MEAN_MOTION_DOT,MEAN_MOTION_DDOT,TLE_LINE0,TLE_LINE1,TLE_LINE2,SEMIMAJOR_AXIS,PERIOD,APOGEE,PERIGEE,DECAYED
54177.0,STARLINK-5186,PAYLOAD,2023-07-06 16:22:36,15.08821668,0.0001208,53.2172,70.0088,94.9097,265.2033,0.00031768,4.769e-05,0.0,0 STARLINK-5186,1 54177U 22141W   23187.68236424  .00004769  00000-0  31768-3 0  9994,2 54177  53.2172  70.0088 0001208  94.9097 265.2033 15.08821668 38364,6917.936,95.439,540.637,538.966,0.0
54177.0,STARLINK-5186,PAYLOAD,2023-07-07 01:54:54,15.08849512,0.0001181,53.217,68.2256,85.5389,274.5738,9.1017e-05,1.161e-05,0.0,0 STARLINK-5186,1 54177U 22141W   23188.07979329  .00001161  00000-0  91017-4 0  9993,2 54177  53.2170  68.2256 0001181  85.5389 274.5738 15.08849512 38428,6917.851,95.437,540.533,538.899,0.0
54177.0,STARLINK-5186,PAYLOAD,2023-07-07 22:34:55,15.08838574,0.0001181,53.2174,64.3594,83.0992,277.0135,4.0272e-05,3.53e-06,0.0,0 STARLINK-5186,1 54177U 22141W   23188.94092308  .00000353  00000-0  40272-4 0  9991,2 54177  53.2174  64.3594 0001181  83.0992 277.0135 15.08838574 38556,6917.885,95.438,540.567,538.933,0.0
54177.0,STARLINK-5186,PAYLOAD,2023-07-09 00:01:05,15.08844112,0.0001276,53.2179,59.6028,89.8656,270.2482,-2.0436e-06,-3.2e-06,0.0,0 STARLINK-5186,1 54177U 22141W   23190.00076150 -.00000320  00000-0 -20436-5 0  9995,2 54177  53.2179  59.6028 0001276  89.8656 270.2482 15.08844112 38719,6917.868,95.437,540.616,538.85,0.0
54177.0,STARLINK-5186,PAYLOAD,2023-07-09 07:58:01,15.08834506,0.0001354,53.2179,58.1145,84.7774,275.3373,3.0675e-05,2e-06,0.0,0 STARLINK-5186,1 54177U 22141W   23190.33196759  .00000200  00000-0  30675-4 0  9999,2 54177  53.2179  58.1145 0001354  84.7774 275.3373 15.08834506 38761,6917.897,95.438,540.699,538.825,0.0
54177.0,STARLINK-5186,PAYLOAD,2023-07-10 23:42:40,15.088367,0.0001382,53.2183,50.6823,96.0784,264.0366,0.0001562,2.199e-05,0.0,0 STARLINK-5186,1 54177U 22141W   23191.98796748  .00002199  00000-0  15620-3 0  9996,2 54177  53.2183  50.6823 0001382  96.0784 264.0366 15.08836700 39018,6917.89,95.438,540.712,538.799,0.0
54177.0,STARLINK-5186,PAYLOAD,2023-07-12 07:30:23,15.08845335,0.0001325,53.2189,44.7327,76.6914,283.4226,-3.8521e-05,-9.01e-06,0.0,0 STARLINK-5186,1 54177U 22141W   23193.31276787 -.00000901  00000-0 -38521-4 0  9998,2 54177  53.2189  44.7327 0001325  76.6914 283.4226 15.08845335 39219,6917.864,95.437,540.646,538.812,0.0
54177.0,STARLINK-5186,PAYLOAD,2023-07-12 13:51:56,15.08836862,0.0001357,53.2183,43.5442,79.9069,280.2076,1.794e-05,-2e-08,0.0,0 STARLINK-5186,1 54177U 22141W   23193.57773286 -.00000002  00000-0  17940-4 0  9995,2 54177  53.2183  43.5442 0001357  79.9069 280.2076 15.08836862 39257,6917.89,95.438,540.694,538.816,0.0
54177.0,STARLINK-5186,PAYLOAD,2023-07-13 16:53:29,15.08825979,0.0001387,53.2177,38.4887,98.1032,262.0117,0.00019213,2.77e-05,0.0,0 STARLINK-5186,1 54177U 22141W   23194.70381147  .00002770  00000-0  19213-3 0  9999,2 54177  53.2177  38.4887 0001387  98.1032 262.0117 15.08825979 39422,6917.923,95.438,540.748,538.829,0.0
54177.0,STARLINK-5186,PAYLOAD,2023-07-13 23:15:01,15.088475,0.0001191,53.2183,37.2985,88.5492,271.5636,2.9107e-05,1.76e-06,0.0,0 STARLINK-5186,1 54177U 22141W   23194.96876513  .00000176  00000-0  29107-4 0  9995,2 54177  53.2183  37.2985 0001191  88.5492 271.5636 15.08847500 39460,6917.857,95.437,540.546,538.899,0.0
54177.0,STARLINK-5186,PAYLOAD,2023-07-14 23:05:48,15.0883621,0.0001271,53.2187,32.8354,104.0427,256.0706,0.00022151,3.239e-05,0.0,0 STARLINK-5186,1 54177U 22141W   23195.96236631  .00003239  00000-0  22151-3 0  9991,2 54177  53.2187  32.8354 0001271 104.0427 256.0706 15.08836210 39615,6917.892,95.438,540.636,538.878,0.0
54177.0,STARLINK-5186,PAYLOAD,2023-07-15 19:45:49,15.08839631,0.0001077,53.218,28.9731,91.2909,268.8207,1.0651e-05,-1.18e-06,0.0,0 STARLINK-5186,1 54177U 22141W   23196.82349095 -.00000118  00000-0  10651-4 0  9993,2 54177  53.2180  28.9731 0001077  91.2909 268.8207 15.08839631 39740,6917.882,95.438,540.492,539.001,0.0
54177.0,STARLINK-5186,PAYLOAD,2023-07-16 21:12:00,15.08839568,0.0001087,53.2182,24.2162,99.3754,260.7361,-2.9118e-05,-7.51e-06,0.0,0 STARLINK-5186,1 54177U 22141W   23197.88333546 -.00000751  00000-0 -29118-4 0  9996,2 54177  53.2182  24.2162 0001087  99.3754 260.7361 15.08839568 39906,6917.882,95.438,540.499,538.995,0.0
54177.0,STARLINK-5186,PAYLOAD,2023-07-17 21:02:46,15.0884618,0.0001025,53.2181,19.7556,95.804,264.3069,0.0001848,2.655e-05,0.0,0 STARLINK-5186,1 54177U 22141W   23198.87692789  .00002655  00000-0  18480-3 0  9995,2 54177  53.2181  19.7556 0001025  95.8040 264.3069 15.08846180 40053,6917.861,95.437,540.436,539.017,0.0
54177.0,STARLINK-5186,PAYLOAD,2023-07-19 17:33:36,15.08835635,0.0001196,53.22,11.4282,83.3875,276.7253,-7.0941e-05,-1.417e-05,0.0,0 STARLINK-5186,1 54177U 22141W   23200.73166737 -.00001417  00000-0 -70941-4 0  9991,2 54177  53.2200  11.4282 0001196  83.3875 276.7253 15.08835635 40333,6917.894,95.438,540.586,538.931,0.0
54177.0,STARLINK-5186,PAYLOAD,2023-07-20 17:24:21,15.0885166,8.5e-05,53.2178,6.9688,97.6439,262.465,0.00012712,1.737e-05,0.0,0 STARLINK-5186,1 54177U 22141W   23201.72525103  .00001737  00000-0  12712-3 0  9991,2 54177  53.2178   6.9688 0000850  97.6439 262.4650 15.08851660 40481,6917.845,95.437,540.298,539.122,0.0
54177.0,STARLINK-5186,PAYLOAD,2023-07-24 10:25:58,15.0883701,0.0001009,53.2191,350.3136,115.8985,244.2111,5.5969e-05,6.03e-06,0.0,0 STARLINK-5186,1 54177U 22141W   23205.43470138  .00000603  00000-0  55969-4 0  9993,2 54177  53.2191 350.3136 0001009 115.8985 244.2111 15.08837010 41042,6917.89,95.438,540.453,539.057,0.0
54177.0,STARLINK-5186,PAYLOAD,2023-07-25 10:16:45,15.08839097,0.0001811,53.2161,345.8533,109.8016,250.3172,3.3163e-05,2.4e-06,0.0,0 STARLINK-5186,1 54177U 22141W   23206.42830514  .00000240  00000-0  33163-4 0  9990,2 54177  53.2161 345.8533 0001811 109.8016 250.3172 15.08839097 41196,6917.883,95.438,541.001,538.495,0.0
54177.0,STARLINK-5186,PAYLOAD,2023-07-26 08:32:09,15.08870273,8.58e-05,53.2187,341.6925,83.6203,276.4887,-0.00040249,-6.693e-05,0.0,0 STARLINK-5186,1 54177U 22141W   23207.35566454 -.00006693  00000-0 -40249-3 0  9994,2 54177  53.2187 341.6925 0000858  83.6203 276.4887 15.08870273 41339,6917.788,95.436,540.246,539.059,0.0
54177.0,STARLINK-5186,PAYLOAD,2023-07-27 02:01:23,15.08845498,9.04e-05,53.2186,338.422,81.2069,278.9025,0.00017188,2.449e-05,0.0,0 STARLINK-5186,1 54177U 22141W   23208.08429771  .00002449  00000-0  17188-3 0  9994,2 54177  53.2186 338.4220 0000904  81.2069 278.9025 15.08845498 41440,6917.864,95.437,540.354,539.103,0.0
54177.0,STARLINK-5186,PAYLOAD,2023-07-27 08:22:56,15.08838331,0.0001376,53.2187,337.2338,79.5168,280.5979,0.00011028,1.468e-05,0.0,0 STARLINK-5186,1 54177U 22141W   23208.34926577  .00001468  00000-0  11028-3 0  9996,2 54177  53.2187 337.2338 0001376  79.5168 280.5979 15.08838331 41481,6917.885,95.438,540.702,538.799,0.0
54177.0,STARLINK-5186,PAYLOAD,2023-07-27 14:44:29,15.08836118,9.23e-05,53.2186,336.0427,80.4241,279.6855,6.4809e-05,7.44e-06,0.0,0 STARLINK-5186,1 54177U 22141W   23208.61422719  .00000744  00000-0  64809-4 0  9997,2 54177  53.2186 336.0427 0000923  80.4241 279.6855 15.08836118 41524,6917.892,95.438,540.396,539.119,0.0
54177.0,STARLINK-5186,PAYLOAD,2023-07-27 16:19:52,15.0883046,9.59e-05,53.217,335.7481,20.9087,339.1944,0.00012767,1.744e-05,0.0,0 STARLINK-5186,1 54177U 22141W   23208.68046905  .00001744  00000-0  12767-3 0  9999,2 54177  53.2170 335.7481 0000959  20.9087 339.1944 15.08830460 41535,6917.91,95.438,540.438,539.111,0.0
54177.0,STARLINK-5186,PAYLOAD,2023-07-28 08:13:43,15.0884128,0.000168,53.2172,332.7743,91.7123,268.4061,-3.1459e-05,-7.89e-06,0.0,0 STARLINK-5186,1 54177U 22141W   23209.34286864 -.00000789  00000-0 -31459-4 0  9993,2 54177  53.2172 332.7743 0001680  91.7123 268.4061 15.08841280 41631,6917.876,95.437,540.904,538.579,0.0
54177.0,STARLINK-5186,PAYLOAD,2023-07-28 14:35:16,15.08849079,0.0001381,53.217,331.5853,79.3774,280.7374,-0.00010078,-1.892e-05,0.0,0 STARLINK-5186,1 54177U 22141W   23209.60782495 -.00001892  00000-0 -10078-3 0  9992,2 54177  53.2170 331.5853 0001381  79.3774 280.7374 15.08849079 41672,6917.853,95.437,540.673,538.762,0.0
54177.0,STARLINK-5186,PAYLOAD,2023-07-29 14:26:02,15.08836062,9.7e-05,53.2156,327.1213,99.8345,260.2756,0.00023045,3.381e-05,0.0,0 STARLINK-5186,1 54177U 22141W   23210.60142329  .00003381  00000-0  23045-3 0  9991,2 54177  53.2156 327.1213 0000970  99.8345 260.2756 15.08836062 41823,6917.892,95.438,540.428,539.086,0.0
54177.0,STARLINK-5186,PAYLOAD,2023-07-29 19:12:11,15.08849914,0.0001067,53.2162,326.2306,92.3782,267.7332,0.00015902,2.245e-05,0.0,0 STARLINK-5186,1 54177U 22141W   23210.80013513  .00002245  00000-0  15902-3 0  9996,2 54177  53.2162 326.2306 0001067  92.3782 267.7332 15.08849914 41859,6917.85,95.437,540.453,538.977,0.0
54177.0,STARLINK-5186,PAYLOAD,2023-07-30 11:06:04,15.08835814,0.0001301,53.2147,323.2553,118.177,241.9354,4.2789e-05,3.93e-06,0.0,0 STARLINK-5186,1 54177U 22141W   23211.46254746  .00000393  00000-0  42789-4 0  9990,2 54177  53.2147 323.2553 0001301 118.1770 241.9354 15.08835814 41951,6917.893,95.438,540.658,538.858,0.0
54177.0,STARLINK-5186,PAYLOAD,2023-07-31 10:56:50,15.0884405,9.58e-05,53.218,318.797,103.0098,257.1001,6.6723e-05,7.74e-06,0.0,0 STARLINK-5186,1 54177U 22141W   23212.45614340  .00000774  00000-0  66723-4 0  9997,2 54177  53.2180 318.7970 0000958 103.0098 257.1001 15.08844050 42101,6917.868,95.437,540.396,539.07,0.0
54177.0,STARLINK-5186,PAYLOAD,2023-07-31 15:42:59,15.08852513,8.03e-05,53.2184,317.9056,93.1159,266.9925,7.5299e-05,9.11e-06,0.0,0 STARLINK-5186,1 54177U 22141W   23212.65485862  .00000911  00000-0  75299-4 0  9995,2 54177  53.2184 317.9056 0000803  93.1159 266.9925 15.08852513 42136,6917.842,95.437,540.263,539.152,0.0
